[{"OBJECT_NAME":"XINGYUN-2 01","OBJECT_ID":"2020-028A","EPOCH":"2026-03-09T23:27:57.512736","MEAN_MOTION":15.11323975,"ECCENTRICITY":0.00090563,"INCLINATION":97.4853,"RA_OF_ASC_NODE":63.3977,"ARG_OF_PERICENTER":174.572,"MEAN_ANOMALY":185.561,"EPHEMERIS_TYPE":0,"CLASSIFICATION_TYPE":"U","NORAD_CAT_ID":45602,"ELEMENT_SET_NO":999,"REV_AT_EPOCH":31985,"BSTAR":0.000253969,"MEAN_MOTION_DOT":4.22e-5,"MEAN_MOTION_DDOT":0},{"OBJECT_NAME":"STARLINK-3179","OBJECT_ID":"2022-005AP","EPOCH":"2026-03-09T21:36:45.370368","MEAN_MOTION":15.08841794,"ECCENTRICITY":0.00014235,"INCLINATION":53.2168,"RA_OF_ASC_NODE":298.1791,"ARG_OF_PERICENTER":103.3992,"MEAN_ANOMALY":256.7159,"EPHEMERIS_TYPE":0,"CLASSIFICATION_TYPE":"U","NORAD_CAT_ID":51141,"ELEMENT_SET_NO":999,"REV_AT_EPOCH":22877,"BSTAR":9.8107655e-5,"MEAN_MOTION_DOT":1.274e-5,"MEAN_MOTION_DDOT":0}]
